start=new Date('2023-04-06T00:00:00.000Z').valueOf();
sats=[{"SITE":"AFETR","ARG_OF_PERICENTER":"87.9739","INCLINATION":"53.0533","PERIOD":"95.592","MEAN_ANOMALY":"272.1358","NORAD_CAT_ID":"44713","MEAN_ELEMENT_THEORY":"SGP4","MEAN_MOTION_DDOT":"0.0000000000000","FILE":"3881153","OBJECT_TYPE":"PAYLOAD","EPHEMERIS_TYPE":"0","RA_OF_ASC_NODE":"304.7008","TLE_LINE1":"1 44713U 19074A   23095.87745435  .00014378  00000-0  98198-3 0  9993","TIME_SYSTEM":"UTC","APOAPSIS":"547.845","MEAN_MOTION_DOT":"0.00014378","CENTER_NAME":"EARTH","ECCENTRICITY":"0.00009450","REV_AT_EPOCH":"18765","DECAY_DATE":null,"PERIAPSIS":"546.536","MEAN_MOTION":"15.06407556","COUNTRY_CODE":"US","TLE_LINE2":"2 44713  53.0533 304.7008 0000945  87.9739 272.1358 15.06407556187657","OBJECT_NAME":"STARLINK-1007","GP_ID":"229566285","REF_FRAME":"TEME","RCS_SIZE":"LARGE","LAUNCH_DATE":"2019-11-11","EPOCH":"2023-04-05T21:03:32.055840","ELEMENT_SET_NO":"999","SEMIMAJOR_AXIS":"6925.325","BSTAR":"0.00098198000000","OBJECT_ID":"2019-074A","CLASSIFICATION_TYPE":"U"},{"TLE_LINE2":"2 44714  53.0527 304.8005 0001078  67.0247 293.0856 15.06437183187654","COUNTRY_CODE":"US","MEAN_MOTION":"15.06437183","CENTER_NAME":"EARTH","PERIAPSIS":"546.353","DECAY_DATE":null,"REV_AT_EPOCH":"18765","ECCENTRICITY":"0.00010780","BSTAR":"0.00132660000000","CLASSIFICATION_TYPE":"U","OBJECT_ID":"2019-074B","LAUNCH_DATE":"2019-11-11","EPOCH":"2023-04-05T20:33:02.225664","ELEMENT_SET_NO":"999","GP_ID":"229565050","RCS_SIZE":"LARGE","REF_FRAME":"TEME","OBJECT_NAME":"STARLINK-1008","SEMIMAJOR_AXIS":"6925.235","MEAN_MOTION_DDOT":"0.0000000000000","FILE":"3881153","RA_OF_ASC_NODE":"304.8005","EPHEMERIS_TYPE":"0","OBJECT_TYPE":"PAYLOAD","SITE":"AFETR","NORAD_CAT_ID":"44714","MEAN_ELEMENT_THEORY":"SGP4","MEAN_ANOMALY":"293.0856","PERIOD":"95.590","INCLINATION":"53.0527","ARG_OF_PERICENTER":"67.0247","TIME_SYSTEM":"UTC","MEAN_MOTION_DOT":"0.00019553","APOAPSIS":"547.846","TLE_LINE1":"1 44714U 19074B   23095.85627576  .00019553  00000-0  13266-2 0  9999"},{"SITE":"AFETR","MEAN_ANOMALY":"299.9943","NORAD_CAT_ID":"44715","MEAN_ELEMENT_THEORY":"SGP4","ARG_OF_PERICENTER":"60.1157","INCLINATION":"53.0529","PERIOD":"95.591","FILE":"3881153","MEAN_MOTION_DDOT":"0.0000000000000","EPHEMERIS_TYPE":"0","RA_OF_ASC_NODE":"304.8478","OBJECT_TYPE":"PAYLOAD","TLE_LINE1":"1 44715U 19074C   23095.84522716  .00018096  00000-0  12300-2 0  9998","TIME_SYSTEM":"UTC","APOAPSIS":"547.932","MEAN_MOTION_DOT":"0.00018096","CENTER_NAME":"EARTH","DECAY_DATE":null,"PERIAPSIS":"546.382","ECCENTRICITY":"0.00011190","REV_AT_EPOCH":"18764","TLE_LINE2":"2 44715  53.0529 304.8478 0001119  60.1157 299.9943 15.06418400187643","COUNTRY_CODE":"US","MEAN_MOTION":"15.06418400","EPOCH":"2023-04-05T20:17:07.626624","LAUNCH_DATE":"2019-11-11","ELEMENT_SET_NO":"999","OBJECT_NAME":"STARLINK-1009","RCS_SIZE":"LARGE","GP_ID":"229565301","REF_FRAME":"TEME","SEMIMAJOR_AXIS":"6925.292","BSTAR":"0.00123000000000","CLASSIFICATION_TYPE":"U","OBJECT_ID":"2019-074C"},{"MEAN_MOTION":"15.06419955","COUNTRY_CODE":"US","TLE_LINE2":"2 44716  53.0545 304.7674 0001293  74.5681 285.5451 15.06419955187633","CENTER_NAME":"EARTH","REV_AT_EPOCH":"18763","ECCENTRICITY":"0.00012930","PERIAPSIS":"546.257","DECAY_DATE":null,"BSTAR":"0.00112710000000","OBJECT_ID":"2019-074D","CLASSIFICATION_TYPE":"U","RCS_SIZE":"LARGE","GP_ID":"229566052","REF_FRAME":"TEME","OBJECT_NAME":"STARLINK-1010","EPOCH":"2023-04-05T20:43:39.777312","LAUNCH_DATE":"2019-11-11","ELEMENT_SET_NO":"999","SEMIMAJOR_AXIS":"6925.287","FILE":"3881153","MEAN_MOTION_DDOT":"0.0000000000000","OBJECT_TYPE":"PAYLOAD","RA_OF_ASC_NODE":"304.7674","EPHEMERIS_TYPE":"0","SITE":"AFETR","INCLINATION":"53.0545","PERIOD":"95.591","ARG_OF_PERICENTER":"74.5681","NORAD_CAT_ID":"44716","MEAN_ELEMENT_THEORY":"SGP4","MEAN_ANOMALY":"285.5451","TIME_SYSTEM":"UTC","MEAN_MOTION_DOT":"0.00016555","APOAPSIS":"548.048","TLE_LINE1":"1 44716U 19074D   23095.86365483  .00016555  00000-0  11271-2 0  9991"},{"TIME_SYSTEM":"UTC","MEAN_MOTION_DOT":"0.00017936","APOAPSIS":"548.074","TLE_LINE1":"1 44717U 19074E   23095.86182085  .00017936  00000-0  12201-2 0  9995","FILE":"3881153","MEAN_MOTION_DDOT":"0.0000000000000","OBJECT_TYPE":"PAYLOAD","RA_OF_ASC_NODE":"324.7716","EPHEMERIS_TYPE":"0","SITE":"AFETR","PERIOD":"95.593","INCLINATION":"53.0533","ARG_OF_PERICENTER":"62.3174","MEAN_ELEMENT_THEORY":"SGP4","NORAD_CAT_ID":"44717","MEAN_ANOMALY":"297.7939","BSTAR":"0.00122010000000","OBJECT_ID":"2019-074E","CLASSIFICATION_TYPE":"U","RCS_SIZE":"LARGE","GP_ID":"229565785","REF_FRAME":"TEME","OBJECT_NAME":"STARLINK-1011","EPOCH":"2023-04-05T20:41:01.321440","LAUNCH_DATE":"2019-11-11","ELEMENT_SET_NO":"999","SEMIMAJOR_AXIS":"6925.367","COUNTRY_CODE":"US","MEAN_MOTION":"15.06393964","TLE_LINE2":"2 44717  53.0533 324.7716 0001216  62.3174 297.7939 15.06393964187375","CENTER_NAME":"EARTH","REV_AT_EPOCH":"18737","ECCENTRICITY":"0.00012160","PERIAPSIS":"546.390","DECAY_DATE":null},{"NORAD_CAT_ID":"44718","MEAN_ELEMENT_THEORY":"SGP4","MEAN_ANOMALY":"256.1444","PERIOD":"95.592","INCLINATION":"53.0523","ARG_OF_PERICENTER":"103.9663","SITE":"AFETR","RA_OF_ASC_NODE":"304.8939","EPHEMERIS_TYPE":"0","OBJECT_TYPE":"PAYLOAD","MEAN_MOTION_DDOT":"0.0000000000000","FILE":"3881153","TLE_LINE1":"1 44718U 19074F   23095.83417164  .00012233  00000-0  83867-3 0  9994","MEAN_MOTION_DOT":"0.00012233","APOAPSIS":"547.947","TIME_SYSTEM":"UTC","PERIAPSIS":"546.469","DECAY_DATE":null,"REV_AT_EPOCH":"18764","ECCENTRICITY":"0.00010670","CENTER_NAME":"EARTH","TLE_LINE2":"2 44718  53.0523 304.8939 0001067 103.9663 256.1444 15.06401826187647","MEAN_MOTION":"15.06401826","COUNTRY_CODE":"US","SEMIMAJOR_AXIS":"6925.343","ELEMENT_SET_NO":"999","LAUNCH_DATE":"2019-11-11","EPOCH":"2023-04-05T20:01:12.429696","REF_FRAME":"TEME","GP_ID":"229564550","RCS_SIZE":"LARGE","OBJECT_NAME":"STARLINK-1012","CLASSIFICATION_TYPE":"U","OBJECT_ID":"2019-074F","BSTAR":"0.00083867000000"},{"COUNTRY_CODE":"US","MEAN_MOTION":"15.06430178","TLE_LINE2":"2 44719  53.0519 304.8600 0001101 104.2007 255.9104 15.06430178188770","CENTER_NAME":"EARTH","ECCENTRICITY":"0.00011010","REV_AT_EPOCH":"18877","DECAY_DATE":null,"PERIAPSIS":"546.359","BSTAR":"0.00119310000000","OBJECT_ID":"2019-074G","CLASSIFICATION_TYPE":"U","OBJECT_NAME":"STARLINK-1013","GP_ID":"229565802","REF_FRAME":"TEME","RCS_SIZE":"LARGE","ELEMENT_SET_NO":"999","LAUNCH_DATE":"2019-11-11","EPOCH":"2023-04-05T20:11:48.312096","SEMIMAJOR_AXIS":"6925.256","FILE":"3881153","MEAN_MOTION_DDOT":"0.0000000000000","OBJECT_TYPE":"PAYLOAD","EPHEMERIS_TYPE":"0","RA_OF_ASC_NODE":"304.8600","SITE":"AFETR","ARG_OF_PERICENTER":"104.2007","INCLINATION":"53.0519","PERIOD":"95.590","MEAN_ANOMALY":"255.9104","MEAN_ELEMENT_THEORY":"SGP4","NORAD_CAT_ID":"44719","TIME_SYSTEM":"UTC","APOAPSIS":"547.884","MEAN_MOTION_DOT":"0.00017549","TLE_LINE1":"1 44719U 19074G   23095.84153139  .00017549  00000-0  11931-2 0  9992"},{"EPOCH":"2023-04-05T20:36:59.442048","LAUNCH_DATE":"2019-11-11","ELEMENT_SET_NO":"999","OBJECT_NAME":"STARLINK-1014","REF_FRAME":"TEME","GP_ID":"229565552","RCS_SIZE":"LARGE","SEMIMAJOR_AXIS":"6925.338","BSTAR":"0.00029314000000","CLASSIFICATION_TYPE":"U","OBJECT_ID":"2019-074H","CENTER_NAME":"EARTH","DECAY_DATE":null,"PERIAPSIS":"546.409","ECCENTRICITY":"0.00011470","REV_AT_EPOCH":"18765","TLE_LINE2":"2 44720  53.0531 304.7729 0001147  82.9418 277.1701 15.06403463187657","MEAN_MOTION":"15.06403463","COUNTRY_CODE":"US","TLE_LINE1":"1 44720U 19074H   23095.85902132  .00004088  00000-0  29314-3 0  9999","TIME_SYSTEM":"UTC","APOAPSIS":"547.997","MEAN_MOTION_DOT":"0.00004088","SITE":"AFETR","MEAN_ANOMALY":"277.1701","NORAD_CAT_ID":"44720","MEAN_ELEMENT_THEORY":"SGP4","ARG_OF_PERICENTER":"82.9418","PERIOD":"95.592","INCLINATION":"53.0531","FILE":"3881153","MEAN_MOTION_DDOT":"0.0000000000000","EPHEMERIS_TYPE":"0","RA_OF_ASC_NODE":"304.7729","OBJECT_TYPE":"PAYLOAD"},{"MEAN_MOTION_DOT":"0.00015645","APOAPSIS":"547.712","TIME_SYSTEM":"UTC","TLE_LINE1":"1 44721U 19074J   23095.84891282  .00015645  00000-0  10664-2 0  9990","OBJECT_TYPE":"PAYLOAD","RA_OF_ASC_NODE":"304.8278","EPHEMERIS_TYPE":"0","MEAN_MOTION_DDOT":"0.0000000000000","FILE":"3881153","INCLINATION":"53.0530","PERIOD":"95.591","ARG_OF_PERICENTER":"97.3708","MEAN_ELEMENT_THEORY":"SGP4","NORAD_CAT_ID":"44721","MEAN_ANOMALY":"262.7372","SITE":"AFETR","OBJECT_ID":"2019-074J","CLASSIFICATION_TYPE":"U","BSTAR":"0.00106640000000","SEMIMAJOR_AXIS":"6925.297","GP_ID":"229566286","REF_FRAME":"TEME","RCS_SIZE":"LARGE","OBJECT_NAME":"STARLINK-1015","ELEMENT_SET_NO":"999","LAUNCH_DATE":"2019-11-11","EPOCH":"2023-04-05T20:22:26.067648","COUNTRY_CODE":"US","MEAN_MOTION":"15.06416859","TLE_LINE2":"2 44721  53.0530 304.8278 0000795  97.3708 262.7372 15.06416859187643","REV_AT_EPOCH":"18764","ECCENTRICITY":"0.00007950","PERIAPSIS":"546.611","DECAY_DATE":null,"CENTER_NAME":"EARTH"},{"FILE":"3881153","MEAN_MOTION_DDOT":"0.0000000000000","OBJECT_TYPE":"PAYLOAD","EPHEMERIS_TYPE":"0","RA_OF_ASC_NODE":"304.7503","SITE":"AFETR","ARG_OF_PERICENTER":"71.4895","PERIOD":"95.591","INCLINATION":"53.0533","MEAN_ANOMALY":"288.6211","MEAN_ELEMENT_THEORY":"SGP4","NORAD_CAT_ID":"44723","TIME_SYSTEM":"UTC","APOAPSIS":"547.889","MEAN_MOTION_DOT":"0.00017316","TLE_LINE1":"1 44723U 19074L   23095.86733859  .00017316  00000-0  11778-2 0  9993","MEAN_MOTION":"15.06422108","COUNTRY_CODE":"US","TLE_LINE2":"2 44723  53.0533 304.7503 0001073  71.4895 288.6211 15.06422108187652","CENTER_NAME":"EARTH","ECCENTRICITY":"0.00010730","REV_AT_EPOCH":"18765","DECAY_DATE":null,"PERIAPSIS":"546.403","BSTAR":"0.00117780000000","OBJECT_ID":"2019-074L","CLASSIFICATION_TYPE":"U","OBJECT_NAME":"STARLINK-1017","GP_ID":"229565051","REF_FRAME":"TEME","RCS_SIZE":"LARGE","ELEMENT_SET_NO":"999","LAUNCH_DATE":"2019-11-11","EPOCH":"2023-04-05T20:48:58.054176","SEMIMAJOR_AXIS":"6925.281"}];
